ISS (ZARYA)             
1 25544U 98067A   26166.51237795  .00007685  00000+0  14626-3 0  9997
2 25544  51.6337 308.3821 0004850 189.0196 171.0706 15.49243792571497
OSCAR 7 (AO-7)          
1 07530U 74089B   26166.56100883 -.00000033  00000+0  83750-4 0  9998
2 07530 101.9900 179.7907 0012550 133.1072 351.4237 12.53698117360318
PHASE 3B (AO-10)        
1 14129U 83058B   26166.42721388  .00000161  00000+0  00000+0 0  9993
2 14129  25.9108 219.8563 6011456 115.1838 317.1369  2.05868643295455
UOSAT 2 (UO-11)         
1 14781U 84021B   26166.40912682  .00001009  00000+0  10828-3 0  9990
2 14781  97.8057 132.0037 0007470 178.4123 181.7120 14.90779245256864
LUSAT (LO-19)           
1 20442U 90005G   26166.50751369  .00000096  00000+0  51150-4 0  9993
2 20442  98.8851 188.2668 0011025 206.2340 153.8286 14.34122746902152
EYESAT A (AO-27)        
1 22825U 93061C   26166.18185475  .00000084  00000+0  48753-4 0  9990
2 22825  98.6881 233.5961 0009521 104.9010 255.3227 14.30941747706719
ITAMSAT (IO-26)         
1 22826U 93061D   26166.16186548  .00000083  00000+0  48145-4 0  9995
2 22826  98.6828 233.4933 0010091  90.3104 269.9235 14.31368614707027
RADIO ROSTO (RS15)      
1 23439U 94085A   26166.51957745 -.00000054  00000+0 -31591-3 0  9993
2 23439  64.8179 305.9132 0155900   4.1846 356.0343 11.27583474295714
JAS-2 (FO-29)           
1 24278U 96046B   26166.53668919  .00000013  00000+0  45334-4 0  9992
2 24278  98.5240  15.6350 0350881 100.7038 263.3808 13.53274267472943
TECHSAT 1B (GO-32)      
1 25397U 98043D   26166.51904378  .00000030  00000+0  33240-4 0  9996
2 25397  99.0067 159.2356 0000970 166.6144 193.5060 14.24428091451092
PCSAT (NO-44)           
1 26931U 01043C   26166.48302536  .00000083  00000+0  62026-4 0  9991
2 26931  67.0506 248.6795 0006076 264.5468  95.4941 14.31955550290205
SAUDISAT 1C (SO-50)     
1 27607U 02058C   26166.33462240  .00000861  00000+0  11895-3 0  9993
2 27607  64.5510 134.7171 0075307 262.8143  96.4397 14.83043230264184
CUTE-1 (CO-55)          
1 27844U 03031E   26166.49171905  .00000237  00000+0  12167-3 0  9990
2 27844  98.6736 175.0719 0009421 182.9125 177.2000 14.24334794191436
CUBESAT XI-IV (CO-57)   
1 27848U 03031J   26166.47932631  .00000199  00000+0  10658-3 0  9993
2 27848  98.6767 174.7736 0008908 202.2653 157.8140 14.23619986191134
MOZHAETS 4 (RS22)       
1 27939U 03042A   26166.51872079  .00000933  00000+0  15197-3 0  9999
2 27939  98.3461 350.8304 0009964 275.8462 168.1396 14.73465563215307
CUBESAT XI-V            
1 28895U 05043F   26166.36421163  .00001202  00000+0  19691-3 0  9994
2 28895  98.2983 321.9478 0013522 206.7180 153.3331 14.72627055101486
CUTE-1.7+APD II (CO-65) 
1 32785U 08021C   26166.52520966  .00003881  00000+0  24653-3 0  9994
2 32785  97.8271 147.9091 0009980  44.3602 315.8425 15.09438822984941
SEEDS II (CO-66)        
1 32791U 08021J   26166.50344194  .00015182  00000+0  48293-3 0  9999
2 32791  97.7511 164.3206 0001314  10.2438 349.8829 15.32702208987033
YUBILEINY (RS30)        
1 32953U 08025A   26166.56937944  .00000093  00000+0  59500-3 0  9998
2 32953  82.5040 356.4473 0018921 317.5812  42.3805 12.43179669819494
KKS-1 (KISEKI)          
1 33499U 09002H   26166.50247594  .00001166  00000+0  14993-3 0  9998
2 33499  98.1191  88.9180 0006615 302.4070  57.6502 14.83120243935940
SWISSCUBE               
1 35932U 09051B   26166.25297169  .00000842  00000+0  17592-3 0  9999
2 35932  98.4038  74.1075 0005844 209.7614 150.3255 14.62478329888876
BEESAT-1                
1 35933U 09051C   26166.46675994  .00000703  00000+0  15091-3 0  9997
2 35933  98.3966  73.9642 0004133 223.5476 136.5399 14.61718018888936
ITUPSAT1                
1 35935U 09051E   26166.45614387  .00000634  00000+0  14088-3 0  9995
2 35935  98.4051  73.1472 0006198 240.3357 119.7226 14.60438270888485
XIWANG-1 (HOPE-1)       
1 36122U 09072B   26166.49590200 -.00000354  00000+0 -80965-3 0  9996
2 36122 100.4023 120.3548 0006860 235.8966 124.1496 13.16437957792784
O/OREOS (USA 219)       
1 37224U 10062C   26166.18705999  .00002000  00000+0  19439-3 0  9996
2 37224  71.9714  84.8700 0012504  67.4228 292.8264 14.93736891116346
JUGNU                   
1 37839U 11058B   26166.12908786  .00000399  00000+0  69103-4 0  9990
2 37839  19.9618 320.9329 0018627  53.5996 113.0994 14.13776231758737
SRMSAT                  
1 37841U 11058D   26166.09346315  .00000356  00000+0  49299-4 0  9990
2 37841  19.9720  72.1399 0011838 180.5594 207.7984 14.11575160757521
STRAND-1                
1 39090U 13009E   26166.45470669  .00000220  00000+0  88443-4 0  9990
2 39090  98.3921 346.7318 0007648 231.1589 128.8916 14.37162360696819
ZACUBE-1 (TSHEPISOSAT)  
1 39417U 13066B   26166.40761859  .00002611  00000+0  20511-3 0  9992
2 39417  97.8082 128.7350 0040605 253.8926 105.7825 15.01179836680469
GOMX-1                  
1 39430U 13066Q   26166.55172280  .00001990  00000+0  30239-3 0  9994
2 39430  97.6479   7.1177 0130155  82.7407 278.8574 14.69456472669672
